1 44284U 19029BB  20110.58334491 -.00007004  00000-0 -38507-3 0  9993
2 44284  52.9985 117.3941 0001249  72.4708  63.4911 15.12132901 50185
1 44284U 19029BB  20110.83334491 +.00029586 +00000-0 +17082-2 0  9992
2 44284 052.9988 116.2590 0001185 082.3830 335.2658 15.12110761001804
1 44284U 19029BB  20111.25001157 -.00023705 +00000-0 -13469-2 0  9993
2 44284 052.9987 114.3707 0001305 075.5186 091.5859 15.12139369001860
1 44284U 19029BB  20111.41667824 +.00035268 +00000-0 +20313-2 0  9991
2 44284 052.9990 113.6154 0001332 071.5333 283.3642 15.12112353050300
1 44284U 19029BB  20112.91667824 +.00033264 +00000-0 +19169-2 0  9998
2 44284 052.9992 106.8108 0001251 082.4425 162.5362 15.12121586001769
1 44284U 19029BB  20113.25001157 -.00013320  00000-0 -74818-3 0  9993
2 44284  52.9991 105.3008 0001336  73.6426 186.9141 15.12142451 50581
1 44284U 19029BB  20113.58335648 -.00031486 +00000-0 -17958-2 0  9998
2 44284 052.9991 103.7887 0001277 072.5614 203.6316 15.12155403001767
1 44284U 19029BB  20113.91667824 +.00032754 +00000-0 +18877-2 0  9997
2 44284 052.9993 102.2759 0001251 083.1513 208.5682 15.12125067001751
1 44284U 19029BB  20114.25001157 -.00010390  00000-0 -57957-3 0  9993
2 44284  52.9992 100.7660 0001340  73.7598 233.5416 15.12143346 50736
1 44284U 19029BB  20114.58334491 -.00039615 +00000-0 -22661-2 0  9993
2 44284 052.9990 099.2538 0001275 073.4360 249.4430 15.12160099001812
1 44284U 19029BB  20114.91667824 +.00030650 +00000-0 +17692-2 0  9995
2 44284 052.9992 097.7413 0001400 084.7858 253.6606 15.12101752001864
1 44284U 19029BB  20115.25001157 -.00010827  00000-0 -60526-3 0  9995
2 44284  52.9991  96.2315 0001487  75.8903 278.0963 15.12111970 50881
1 44284U 19029BB  20115.58334491 -.00039308 +00000-0 -22503-2 0  9998
2 44284 052.9990 094.7192 0001427 076.5641 292.9633 15.12128542001829
1 44284U 19029BB  20115.91667824 +.00024913 +00000-0 +14424-2 0  9991
2 44284 052.9991 093.2069 0001444 085.5414 299.5354 15.12101232001767
1 44284U 19029BB  20116.25002315 -.00005967  00000-0 -32568-3 0  9997
2 44284  52.9990  91.6971 0001531  76.7196 323.9698 15.12110139 51041
1 44284U 19029BB  20116.58334491 -.00037856 +00000-0 -21662-2 0  9990
2 44284 052.9990 090.1847 0001471 077.6842 338.4816 15.12127038001761
1 44284U 19029BB  20116.91667824  .00084533  00000-0  48096-2 0  9998
2 44284  52.9991  88.6725 0001369  86.7775 344.9389 15.12128523 51145
1 44284U 19029BB  20117.25001157  .00002130  00000-0  13921-3 0  9990
2 44284  52.9990  87.1627 0001441  75.1604  12.1482 15.12142184 51195
1 44284U 19029BB  20117.58334491 -.00035473 +00000-0 -20261-2 0  9998
2 44284 052.9991 085.6501 0001382 076.4825 026.4077 15.12161751001760
1 44284U 19029BB  20117.91667824 +.00008518 +00000-0 +50490-3 0  9990
2 44284 052.9992 084.1378 0001440 083.2648 035.2174 15.12148471001817
1 44284U 19029BB  20118.00001157 -.00021774 +00000-0 -12347-2 0  9991
2 44284 052.9993 083.7606 0001446 081.5804 130.7952 15.12161606001762
1 44284U 19029BB  20118.91667824 +.00008370 +00000-0 +49679-3 0  9994
2 44284 052.9996 079.6034 0001373 080.8417 084.3721 15.12123190051449
1 44284U 19029BB  20119.25001157 +.00022834 +00000-0 +13236-2 0  9993
2 44284 052.9996 078.0935 0001454 069.8210 110.9610 15.12108707001760
1 44284U 19029BB  20119.91668981 -.00000124  00000-0  99526-5 0  9998
2 44284  53.0000  75.0688 0001448  78.9033 133.0541 15.12132649 51594
1 44284U 19029BB  20120.25001157 +.00031936 +00000-0 +18419-2 0  9996
2 44284 053.0001 073.5589 0001547 068.5066 158.9652 15.12111634001763
1 44284U 19029BB  20120.91667824 -.00007982 +00000-0 -44114-3 0  9996
2 44284 053.0004 070.5342 0001517 077.7549 180.8442 15.12142115001810
1 44284U 19029BB  20121.16667824 -.00003706  00000-0 -19562-3 0  9993
2 44284  53.0004  69.4018 0001603  69.7208 110.5681 15.12132563 51788
1 44284U 19029BB  20121.91668981 +.00003515 +00000-0 +21855-3 0  9995
2 44284 053.0008 065.9993 0001568 078.0814 227.3065 15.12146896001750
1 44284U 19029BB  20122.25001157  .00035856  00000-0  20642-2 0  9994
2 44284  53.0009  64.4893 0001667  69.3686 251.5502 15.12121155 51946
1 44284U 19029BB  20122.58335648 -.00010787  00000-0 -60289-3 0  9995
2 44284  53.0011  62.9761 0001446  74.1080 262.4435 15.12115061 51993
1 44284U 19029BB  20122.91667824 -.00020489 +00000-0 -11617-2 0  9996
2 44284 053.0012 061.4647 0001471 077.3201 274.7075 15.12128279001759
1 44284U 19029BB  20123.58334491 -.00000390  00000-0 -52854-5 0  9991
2 44284  53.0013  58.4413 0001449  76.5188 306.6241 15.12113089 52149
1 44284U 19029BB  20123.91667824 -.00026828 +00000-0 -15274-2 0  9993
2 44284 053.0014 056.9302 0001490 078.4211 320.2655 15.12136280001776
1 44284U 19029BB  20124.25001157 +.00039904 +00000-0 +22954-2 0  9992
2 44284 053.0013 055.4198 0001546 070.5726 343.6855 15.12099268001773
1 44284U 19029BB  20124.91667824 -.00028930  00000-0 -16487-2 0  9997
2 44284  53.0014  52.3956 0001526  80.2514   5.1095 15.12140709 52356
1 44284U 19029BB  20125.58334491 +.00017184 +00000-0 +10010-2 0  9995
2 44284 053.0014 049.3721 0001492 081.5142 034.9813 15.12111309001766
1 44284U 19029BB  20125.91668981 -.00030539  00000-0 -17416-2 0  9994
2 44284  53.0014  47.8612 0001581  81.8345  50.2743 15.12142789 52502
1 44284U 19029BB  20126.25001157 +.00041961 +00000-0 +24117-2 0  9993
2 44284 053.0013 046.3508 0001610 074.2566 073.3650 15.12106139001767
1 44284U 19029BB  20126.58334491  .00025292  00000-0  14636-2 0  9993
2 44284  53.0014  44.8377 0001551  82.8793  80.3074 15.12111373 52609
1 44284U 19029BB  20126.91668981 -.00032658 +00000-0 -18641-2 0  9990
2 44284 053.0015 043.3270 0001658 082.3703 096.4331 15.12144291001760
1 44284U 19029BB  20127.25001157  .00034852  00000-0  20076-2 0  9995
2 44284  53.0014  41.8165 0001677  75.4382 118.8793 15.12113727 52703
1 44284U 19029BB  20127.91667824 -.00025202 +00000-0 -14330-2 0  9994
2 44284 053.0015 038.7929 0001738 082.3009 143.1492 15.12147236052808
1 44284U 19029BB  20128.50001157 -.00001683 +00000-0 -79437-4 0  9999
2 44284 053.0018 036.1471 0001704 082.3955 080.3174 15.12135359001804
1 44284U 19029BB  20128.83335648 -.00021018  00000-0 -11913-2 0  9997
2 44284  53.0019  34.6357 0001817  84.1809  94.1671 15.12154476 52941
1 44284U 19029BB  20128.91667824 -.00009892 +00000-0 -55082-3 0  9992
2 44284 053.0018 034.2585 0001815 081.6570 190.5213 15.12149039001760
1 44284U 19029BB  20129.25001157 +.00012942 +00000-0 +75807-3 0  9996
2 44284 053.0017 032.7476 0001809 076.2114 211.5518 15.12135932001813
1 44284U 19029BB  20129.91667824 -.00029008  00000-0 -16537-2 0  9995
2 44284  53.0022  29.7239 0001776  80.3358 238.5900 15.12129140 53108
1 44284U 19029BB  20130.58334491  .00044512  00000-0  25571-2 0  9994
2 44284  53.0025  26.6997 0001745  84.4779 265.5702 15.12096346 53208
1 44284U 19029BB  20130.91668981 -.00011459 +00000-0 -64131-3 0  9997
2 44284 053.0025 025.1894 0001828 080.6294 285.0196 15.12129416001763
1 44284U 19029BB  20131.25001157 -.00001855  00000-0 -89335-4 0  9994
2 44284  53.0026  23.6781 0001811  76.8126 304.3324 15.12125800 53303
1 44284U 19029BB  20131.58334491 +.00054926 +00000-0 +31465-2 0  9994
2 44284 053.0029 022.1650 0001787 085.9283 310.7890 15.12099423001776
1 44284U 19029BB  20131.91667824 +.00007249 +00000-0 +43248-3 0  9999
2 44284 053.0029 020.6549 0001872 081.8952 330.3741 15.12131865001779
1 44284U 19029BB  20132.58334491  .00040011  00000-0  23009-2 0  9990
2 44284  53.0033  17.6303 0001830  87.7293 355.6801 15.12108682 53512
1 44284U 19029BB  20132.91667824 -.00026142 +00000-0 -14875-2 0  9998
2 44284 053.0032 016.1203 0001900 083.2380 015.7332 15.12141348001769
1 44284U 19029BB  20133.25001157 -.00016066  00000-0 -90626-3 0  9990
2 44284  53.0032  14.6086 0001865  81.4626  33.0771 15.12141633 53612
1 44284U 19029BB  20133.91667824 -.00020656 +00000-0 -11708-2 0  9995
2 44284 053.0035 011.5857 0001897 085.5645 060.1255 15.12142107001762
1 44284U 19029BB  20134.25001157 -.00021553  00000-0 -12224-2 0  9995
2 44284  53.0034  10.0739 0001860  84.9390  76.3218 15.12147580 53769
1 44284U 19029BB  20134.58334491 +.00034846 +00000-0 +20068-2 0  9993
2 44284 053.0036 008.5612 0001864 093.6593 083.1850 15.12121783001767
1 44284U 19029BB  20134.91667824 -.00015777 +00000-0 -88964-3 0  9993
2 44284 053.0035 007.0514 0001906 087.9813 104.4383 15.12140617001764
1 44284U 19029BB  20135.25001157 -.00029524  00000-0 -16824-2 0  9992
2 44284  53.0033   5.5394 0001865  88.5397 119.4515 15.12152733 53918
1 44284U 19029BB  20135.91667824 -.00008772 +00000-0 -48656-3 0  9995
2 44284 053.0033 002.5171 0001935 090.2594 148.8965 15.12139159001763
1 44284U 19029BB  20136.50001157  .00034125  00000-0  19659-2 0  9991
2 44284  53.0032 359.8703 0001902  97.2075  79.2170 15.12119965 54100
1 44284U 19029BB  20136.58334491 +.00031689 +00000-0 +18270-2 0  9999
2 44284 053.0033 359.4925 0001949 098.2535 172.0597 15.12127879001768
1 44284U 19029BB  20136.91668981 -.00004153  00000-0 -22140-3 0  9990
2 44284  53.0032 357.9827 0001845  91.7973 194.1476 15.12109131 54164
1 44284U 19029BB  20137.58334491 +.00035144 +00000-0 +20249-2 0  9999
2 44284 053.0033 354.9582 0001868 099.7475 217.2213 15.12100516001762
1 44284U 19029BB  20137.91667824 -.00003364 +00000-0 -17604-3 0  9998
2 44284 053.0032 353.4487 0001882 092.4141 240.1054 15.12109401001811
1 44284U 19029BB  20138.25001157 -.00039995 +00000-0 -22899-2 0  9997
2 44284 053.0033 351.9364 0001810 093.8802 254.1804 15.12131297054363
1 44284U 19029BB  20138.58334491  .00109466  00000-0  62024-2 0  9996
2 44284  53.0025 350.4282 0001746 100.9883 262.6215 15.12123022 54417
1 44284U 19029BB  20138.83334491 -.00019433 +00000-0 -11000-2 0  9998
2 44284 053.0022 349.2960 0001761 094.7612 190.5394 15.12152108054458
1 44284U 19029BB  20139.58334491 +.00013333 +00000-0 +78013-3 0  9990
2 44284 053.0025 345.8936 0001789 100.5209 309.8513 15.12147755001771
1 44284U 19029BB  20139.91667824  .00010319  00000-0  60848-3 0  9994
2 44284  53.0025 344.3838 0001648  93.2350 332.7209 15.12114050 54626
